$$SOE
2459580.500000000, A.D. 2022-Jan-01 00:00:00.0000, -4.173866163601387E+09, -5.201162634996627E+09, -1.015312699203963E+08,
2459587.500000000, A.D. 2022-Jan-08 00:00:00.0000, -4.171776978370083E+09, -5.202777276657666E+09, -1.015958741056025E+08,
2459594.500000000, A.D. 2022-Jan-15 00:00:00.0000, -4.169687189841424E+09, -5.204391050459602E+09, -1.016604601095519E+08,
2459601.500000000, A.D. 2022-Jan-22 00:00:00.0000, -4.167596794429247E+09, -5.206003957617815E+09, -1.017250282975230E+08,
2459608.500000000, A.D. 2022-Jan-29 00:00:00.0000, -4.165505787968437E+09, -5.207615996871411E+09, -1.017895789276698E+08,
2459615.500000000, A.D. 2022-Feb-05 00:00:00.0000, -4.163414167922007E+09, -5.209227165154914E+09, -1.018541120032473E+08,
2459622.500000000, A.D. 2022-Feb-12 00:00:00.0000, -4.161321933414848E+09, -5.210837459338166E+09, -1.019186274098995E+08,
2459629.500000000, A.D. 2022-Feb-19 00:00:00.0000, -4.159229084418941E+09, -5.212446876665495E+09, -1.019831250229833E+08,
2459636.500000000, A.D. 2022-Feb-26 00:00:00.0000, -4.157135621401397E+09, -5.214055414617125E+09, -1.020476047239244E+08,
2459643.500000000, A.D. 2022-Mar-05 00:00:00.0000, -4.155041545276037E+09, -5.215663070809688E+09, -1.021120663908696E+08,
2459650.500000000, A.D. 2022-Mar-12 00:00:00.0000, -4.152946857436710E+09, -5.217269843001501E+09, -1.021765098896573E+08,
2459657.500000000, A.D. 2022-Mar-19 00:00:00.0000, -4.150851559801287E+09, -5.218875729174399E+09, -1.022409350696113E+08,
2459664.500000000, A.D. 2022-Mar-26 00:00:00.0000, -4.148755654843913E+09, -5.220480727697893E+09, -1.023053417670019E+08,
2459671.500000000, A.D. 2022-Apr-02 00:00:00.0000, -4.146659145547734E+09, -5.222084837631248E+09, -1.023697298272243E+08,
2459678.500000000, A.D. 2022-Apr-09 00:00:00.0000, -4.144562035006036E+09, -5.223688059158464E+09, -1.024340991704619E+08,
2459685.500000000, A.D. 2022-Apr-16 00:00:00.0000, -4.142464325314663E+09, -5.225290393501823E+09, -1.024984498803444E+08,
2459692.500000000, A.D. 2022-Apr-23 00:00:00.0000, -4.140366017024584E+09, -5.226891841229551E+09, -1.025627821107235E+08,
2459699.500000000, A.D. 2022-Apr-30 00:00:00.0000, -4.138267111024775E+09, -5.228492401202738E+09, -1.026270958226109E+08,
2459706.500000000, A.D. 2022-May-07 00:00:00.0000, -4.136167609792658E+09, -5.230092072134912E+09, -1.026913907935436E+08,
2459713.500000000, A.D. 2022-May-14 00:00:00.0000, -4.134067516622756E+09, -5.231690853726034E+09, -1.027556667785780E+08,
2459720.500000000, A.D. 2022-May-21 00:00:00.0000, -4.131966834864594E+09, -5.233288746612065E+09, -1.028199235746093E+08,
2459727.500000000, A.D. 2022-May-28 00:00:00.0000, -4.129865567648685E+09, -5.234885752088858E+09, -1.028841610224411E+08,
2459734.500000000, A.D. 2022-Jun-04 00:00:00.0000, -4.127763717823456E+09, -5.236481871923060E+09, -1.029483789975646E+08,
2459741.500000000, A.D. 2022-Jun-11 00:00:00.0000, -4.125661287958405E+09, -5.238077108247716E+09, -1.030125774026873E+08,
2459748.500000000, A.D. 2022-Jun-18 00:00:00.0000, -4.123558280374794E+09, -5.239671463529082E+09, -1.030767561644230E+08,
2459755.500000000, A.D. 2022-Jun-25 00:00:00.0000, -4.121454697174355E+09, -5.241264940637586E+09, -1.031409152394750E+08,
2459762.500000000, A.D. 2022-Jul-02 00:00:00.0000, -4.119350540131976E+09, -5.242857543088424E+09, -1.032050546478705E+08,
2459769.500000000, A.D. 2022-Jul-09 00:00:00.0000, -4.117245810062039E+09, -5.244449275274613E+09, -1.032691745544558E+08,
2459776.500000000, A.D. 2022-Jul-16 00:00:00.0000, -4.115140505713546E+09, -5.246040141609498E+09, -1.033332753049591E+08,
2459783.500000000, A.D. 2022-Jul-23 00:00:00.0000, -4.113034624392452E+09, -5.247630144500902E+09, -1.033973572084215E+08,
2459790.500000000, A.D. 2022-Jul-30 00:00:00.0000, -4.110928164227087E+09, -5.249219284510847E+09, -1.034614203475926E+08,
2459797.500000000, A.D. 2022-Aug-06 00:00:00.0000, -4.108821124477921E+09, -5.250807562052617E+09, -1.035254646941922E+08,
2459804.500000000, A.D. 2022-Aug-13 00:00:00.0000, -4.106713504714839E+09, -5.252394977870815E+09, -1.035894902281811E+08,
2459811.500000000, A.D. 2022-Aug-20 00:00:00.0000, -4.104605304431302E+09, -5.253981532807699E+09, -1.036534969580066E+08,
2459818.500000000, A.D. 2022-Aug-27 00:00:00.0000, -4.102496523027235E+09, -5.255567227582474E+09, -1.037174849071953E+08,
2459825.500000000, A.D. 2022-Sep-03 00:00:00.0000, -4.100387159912710E+09, -5.257152062693972E+09, -1.037814540988975E+08,
2459832.500000000, A.D. 2022-Sep-10 00:00:00.0000, -4.098277214642355E+09, -5.258736038422923E+09, -1.038454045445666E+08,
2459839.500000000, A.D. 2022-Sep-17 00:00:00.0000, -4.096166687051039E+09, -5.260319154935438E+09, -1.039093362395561E+08,
2459846.500000000, A.D. 2022-Sep-24 00:00:00.0000, -4.094055577330420E+09, -5.261901412538672E+09, -1.039732491753614E+08,
2459853.500000000, A.D. 2022-Oct-01 00:00:00.0000, -4.091943885806386E+09, -5.263482812110909E+09, -1.040371433924637E+08,
2459860.500000000, A.D. 2022-Oct-08 00:00:00.0000, -4.089831612010057E+09, -5.265063355184031E+09, -1.041010190686345E+08,
2459867.500000000, A.D. 2022-Oct-15 00:00:00.0000, -4.087718753974202E+09, -5.266643042479143E+09, -1.041648764594924E+08,
2459874.500000000, A.D. 2022-Oct-22 00:00:00.0000, -4.085605309936657E+09, -5.268221872579304E+09, -1.042287156290557E+08,
2459881.500000000, A.D. 2022-Oct-29 00:00:00.0000, -4.083491279952933E+09, -5.269799843332796E+09, -1.042925364116464E+08,
2459888.500000000, A.D. 2022-Nov-05 00:00:00.0000, -4.081376665318681E+09, -5.271376953245819E+09, -1.043563385739720E+08,
2459895.500000000, A.D. 2022-Nov-12 00:00:00.0000, -4.079261467766861E+09, -5.272953201597367E+09, -1.044201218938296E+08,
2459902.500000000, A.D. 2022-Nov-19 00:00:00.0000, -4.077145689158973E+09, -5.274528588230424E+09, -1.044838861676226E+08,
2459909.500000000, A.D. 2022-Nov-26 00:00:00.0000, -4.075029331408139E+09, -5.276103113416784E+09, -1.045476312033656E+08,
2459916.500000000, A.D. 2022-Dec-03 00:00:00.0000, -4.072912396468006E+09, -5.277676777807030E+09, -1.046113568154342E+08,
2459923.500000000, A.D. 2022-Dec-10 00:00:00.0000, -4.070794886341940E+09, -5.279249582447002E+09, -1.046750628237658E+08,
2459930.500000000, A.D. 2022-Dec-17 00:00:00.0000, -4.068676803087792E+09, -5.280821528885716E+09, -1.047387490618324E+08,
2459937.500000000, A.D. 2022-Dec-24 00:00:00.0000, -4.066558148708853E+09, -5.282392619440584E+09, -1.048024154087763E+08,
2459944.500000000, A.D. 2022-Dec-31 00:00:00.0000, -4.064438924573354E+09, -5.283962857512422E+09, -1.048660618696887E+08,
2459951.500000000, A.D. 2023-Jan-07 00:00:00.0000, -4.062319130239803E+09, -5.285532246987859E+09, -1.049296886365781E+08,
2459958.500000000, A.D. 2023-Jan-14 00:00:00.0000, -4.060198763655178E+09, -5.287100790232329E+09, -1.049932959089470E+08,
2459965.500000000, A.D. 2023-Jan-21 00:00:00.0000, -4.058077823370717E+09, -5.288668487846283E+09, -1.050568836740267E+08,
2459972.500000000, A.D. 2023-Jan-28 00:00:00.0000, -4.055956309107313E+09, -5.290235340380119E+09, -1.051204517990267E+08,
2459979.500000000, A.D. 2023-Feb-04 00:00:00.0000, -4.053834220879059E+09, -5.291801348980085E+09, -1.051840001687465E+08,
2459986.500000000, A.D. 2023-Feb-11 00:00:00.0000, -4.051711558470146E+09, -5.293366515158686E+09, -1.052475287196164E+08,
2459993.500000000, A.D. 2023-Feb-18 00:00:00.0000, -4.049588321328319E+09, -5.294930840512630E+09, -1.053110374315150E+08,
2460000.500000000, A.D. 2023-Feb-25 00:00:00.0000, -4.047464508611975E+09, -5.296494326549939E+09, -1.053745263145564E+08,
2460007.500000000, A.D. 2023-Mar-04 00:00:00.0000, -4.045340119288540E+09, -5.298056974607185E+09, -1.054379953985167E+08,
2460014.500000000, A.D. 2023-Mar-11 00:00:00.0000, -4.043215152255334E+09, -5.299618785856118E+09, -1.055014447273054E+08,
2460021.500000000, A.D. 2023-Mar-18 00:00:00.0000, -4.041089606435648E+09, -5.301179761448888E+09, -1.055648743666332E+08,
2460028.500000000, A.D. 2023-Mar-25 00:00:00.0000, -4.038963480646538E+09, -5.302739902848865E+09, -1.056282844471624E+08,
2460035.500000000, A.D. 2023-Apr-01 00:00:00.0000, -4.036836772813616E+09, -5.304299211953395E+09, -1.056916752497206E+08,
2460042.500000000, A.D. 2023-Apr-08 00:00:00.0000, -4.034709479148082E+09, -5.305857689783359E+09, -1.057550471757889E+08,
2460049.500000000, A.D. 2023-Apr-15 00:00:00.0000, -4.032581595622886E+09, -5.307415334845469E+09, -1.058184004791818E+08,
2460056.500000000, A.D. 2023-Apr-22 00:00:00.0000, -4.030453119938738E+09, -5.308972144219209E+09, -1.058817351741071E+08,
2460063.500000000, A.D. 2023-Apr-29 00:00:00.0000, -4.028324051244866E+09, -5.310528115115410E+09, -1.059450511863573E+08,
2460070.500000000, A.D. 2023-May-06 00:00:00.0000, -4.026194389374693E+09, -5.312083245125249E+09, -1.060083484406412E+08,
2460077.500000000, A.D. 2023-May-13 00:00:00.0000, -4.024064134573187E+09, -5.313637532053108E+09, -1.060716268675783E+08,
2460084.500000000, A.D. 2023-May-20 00:00:00.0000, -4.021933287481705E+09, -5.315190973824261E+09, -1.061348863921533E+08,
2460091.500000000, A.D. 2023-May-27 00:00:00.0000, -4.019801849186821E+09, -5.316743568496796E+09, -1.061981269240069E+08,
2460098.500000000, A.D. 2023-Jun-03 00:00:00.0000, -4.017669821275555E+09, -5.318295314351651E+09, -1.062613483530011E+08,
2460105.500000000, A.D. 2023-Jun-10 00:00:00.0000, -4.015537205873186E+09, -5.319846210074533E+09, -1.063245505536277E+08,
2460112.500000000, A.D. 2023-Jun-17 00:00:00.0000, -4.013404005574658E+09, -5.321396255089690E+09, -1.063877334116380E+08,
2460119.500000000, A.D. 2023-Jun-24 00:00:00.0000, -4.011270222949538E+09, -5.322945449989925E+09, -1.064508968979390E+08,
2460126.500000000, A.D. 2023-Jul-01 00:00:00.0000, -4.009135859367414E+09, -5.324493796234680E+09, -1.065140411455121E+08,
2460133.500000000, A.D. 2023-Jul-08 00:00:00.0000, -4.007000914817719E+09, -5.326041294294044E+09, -1.065771663088195E+08,
2460140.500000000, A.D. 2023-Jul-15 00:00:00.0000, -4.004865390000720E+09, -5.327587943068490E+09, -1.066402723199472E+08,
$$EOE